     2.10           N: GPS NAV DATA                         RINEX VERSION / TYPE
Converto v3.5.2     IGN                 20190102 000706 UTC PGM / RUN BY / DATE
Linux 2.4.21-27.ELsmp|Opteron|gcc|Linux x86_64|=+           COMMENT
                                                            END OF HEADER
 8 19  1  1 22  0  0.0-1.276223920286D-04-1.364242052659D-12 0.000000000000D+00
    1.810000000000D+02-8.559375000000D+01 4.309108181388D-09-4.204978621209D-01
   -4.498288035393D-06 4.042102489620D-03 5.694106221199D-06 5.153674661636D+03
    2.520000000000D+05 3.352761268616D-08-1.414579136110D+00-6.891787052155D-08
    9.698355660927D-01 2.765937500000D+02-3.939859200321D-01-8.136053608609D-09
   -3.271564963381D-10 1.000000000000D+00 2.034000000000D+03 0.000000000000D+00
    2.000000000000D+00 0.000000000000D+00 5.122274160385D-09 1.810000000000D+02
    2.493300000000D+05
 8 19  1  2  0  0  0.0-1.276321709156D-04-1.364242052659D-12 0.000000000000D+00
    1.820000000000D+02-8.812500000000D+01 4.344824056091D-09 6.295324007457D-01
   -4.766508936882D-06 4.043978173286D-03 4.684552550316D-06 5.153678319931D+03
    2.592000000000D+05 3.911554813385D-08-1.414637777182D+00-9.313225746155D-09
    9.698329679502D-01 2.913437500000D+02-3.938379122213D-01-8.173555166024D-09
   -3.471573306602D-10 1.000000000000D+00 2.034000000000D+03 0.000000000000D+00
    2.000000000000D+00 0.000000000000D+00 5.122274160385D-09 1.820000000000D+02
    2.520300000000D+05
 9 18 12 31 23 59 44.0 4.770336672664D-04-4.320099833421D-12 0.000000000000D+00
    0.000000000000D+00-8.937500000000D+00 4.730197122882D-09 6.354320611645D-01
   -5.811452865601D-07 1.468932488933D-03 9.169802069664D-06 5.153759403229D+03
    1.727840000000D+05 9.313225746155D-09 1.727351846544D+00 1.862645149231D-08
    9.521170417136D-01 1.959375000000D+02 1.681619323086D+00-8.069979351433D-09
   -2.996553283285D-10 1.000000000000D+00 2.034000000000D+03 0.000000000000D+00
    2.000000000000D+00 0.000000000000D+00 1.396983861923D-09 0.000000000000D+00
    1.728000000000D+05
 9 19  1  1  1 59 44.0 4.770024679601D-04-4.320099833421D-12 0.000000000000D+00
    6.000000000000D+00-1.640625000000D+01 4.648764928561D-09 1.684686348394D+00
   -8.605420589447D-07 1.469632843509D-03 8.873641490936D-06 5.153762151718D+03
    1.799840000000D+05 1.303851604462D-08 1.727293756992D+00 9.313225746155D-09
    9.521149351116D-01 2.035000000000D+02 1.682493753110D+00-8.061050493779D-09
   -2.967980861079D-10 1.000000000000D+00 2.034000000000D+03 0.000000000000D+00
    2.000000000000D+00 0.000000000000D+00 1.396983861923D-09 6.000000000000D+00
    1.728300000000D+05
 9 19  1  1  4  0  0.0 4.769712686539D-04-4.320099833421D-12 0.000000000000D+00
    7.000000000000D+00-2.575000000000D+01 4.684123755538D-09 2.737874050758D+00
   -1.231208443642D-06 1.470383256674D-03 8.940696716309D-06 5.153759700775D+03
    1.872000000000D+05-6.146728992462D-08 1.727236047800D+00 4.656612873077D-08
    9.521128255837D-01 2.023437500000D+02 1.681768194019D+00-8.010690777382D-09
   -3.460858544191D-10 1.000000000000D+00 2.034000000000D+03 0.000000000000D+00
    2.000000000000D+00 0.000000000000D+00 1.396983861923D-09 7.000000000000D+00
    1.800300000000D+05
 9 19  1  1  6  0  0.0 4.769400693476D-04-4.320099833421D-12 0.000000000000D+00
    8.000000000000D+00-2.662500000000D+01 4.708767598061D-09-2.495189372459D+00
   -1.329928636551D-06 1.469770330004D-03 9.251758456230D-06 5.153760833740D+03
    1.944000000000D+05 2.421438694000D-08 1.727178887202D+00-6.519258022308D-08
    9.521098324533D-01 1.978125000000D+02 1.681775088752D+00-8.042120747120D-09
   -4.589476854111D-10 1.000000000000D+00 2.034000000000D+03 0.000000000000D+00
    2.000000000000D+00 0.000000000000D+00 1.396983861923D-09 8.000000000000D+00
    1.872300000000D+05
 9 19  1  1  8  0  0.0 4.769088700414D-04-4.320099833421D-12 0.000000000000D+00
    9.000000000000D+00-1.993750000000D+01 4.804485698173D-09-1.445679460775D+00
   -1.095235347748D-06 1.470365212299D-03 9.391456842422D-06 5.153758821487D+03
    2.016000000000D+05 1.862645149231D-08 1.727120908833D+00-5.587935447693D-09
    9.521062453782D-01 1.929062500000D+02 1.682395358703D+00-8.088551162189D-09
   -4.785913887417D-10 1.000000000000D+00 2.034000000000D+03 0.000000000000D+00
    2.000000000000D+00 0.000000000000D+00 1.396983861923D-09 9.000000000000D+00
    1.944300000000D+05
 9 19  1  1 10  0  0.0 4.768772050738D-04-4.320099833421D-12 0.000000000000D+00
    4.900000000000D+01-1.315625000000D+01 4.760555505356D-09-3.949310587381D-01
   -7.823109626770D-07 1.470763003454D-03 9.195879101753D-06 5.153760639191D+03
    2.088000000000D+05 7.450580596924D-09 1.727062788560D+00 9.313225746155D-09
    9.521028119095D-01 1.967187500000D+02 1.681776831087D+00-8.075335955482D-09
   -4.885917781472D-10 1.000000000000D+00 2.034000000000D+03 0.000000000000D+00
    2.000000000000D+00 0.000000000000D+00 1.396983861923D-09 4.900000000000D+01
    2.016300000000D+05
 9 19  1  1 12  0  0.0 4.768460057676D-04-4.320099833421D-12 0.000000000000D+00
    5.000000000000D+01-1.259375000000D+01 4.791627983280D-09 6.551429044174D-01
   -7.674098014832D-07 1.469700597227D-03 8.793547749519D-06 5.153758670807D+03
    2.160000000000D+05-1.303851604462D-08 1.727004586364D+00 1.490116119385D-08
    9.520993447936D-01 2.048750000000D+02 1.681833412369D+00-8.067836176906D-09
   -4.746626425245D-10 1.000000000000D+00 2.034000000000D+03 0.000000000000D+00
    2.000000000000D+00 0.000000000000D+00 1.396983861923D-09 5.000000000000D+01
    0.000000000000D+00
 9 19  1  1 23 59 44.0 4.766583442688D-04-4.320099833421D-12 0.000000000000D+00
    1.000000000000D+01-1.534375000000D+01 4.824129540282D-09 6.700844752738D-01
   -9.033828973770D-07 1.471410738304D-03 8.059665560722D-06 5.153756484985D+03
    2.591840000000D+05 5.587935447693D-09 1.726653328030D+00 2.607703208923D-08
    9.520813406608D-01 2.171250000000D+02 1.682164182536D+00-8.109623195196D-09
   -3.564434303271D-10 1.000000000000D+00 2.034000000000D+03 0.000000000000D+00
    2.000000000000D+00 0.000000000000D+00 1.396983861923D-09 1.000000000000D+01
    2.573400000000D+05
 9 19  1  2  0  0  0.0 4.766583442688D-04-4.320099833421D-12 0.000000000000D+00
    1.010000000000D+02-1.534375000000D+01 4.823772492557D-09 6.724189326504D-01
   -9.033828973770D-07 1.471414580010D-03 8.059665560722D-06 5.153756488800D+03
    2.592000000000D+05 5.587935447693D-09 1.726653202219D+00 2.607703208923D-08
    9.520813362721D-01 2.171250000000D+02 1.682163338432D+00-8.109623195196D-09
   -3.564434303271D-10 1.000000000000D+00 2.034000000000D+03 0.000000000000D+00
    2.000000000000D+00 0.000000000000D+00 1.396983861923D-09 1.010000000000D+02
    2.545200000000D+05
10 18 12 31 22  0  0.0 1.430818811059D-04-6.025402399246D-12 0.000000000000D+00
    4.400000000000D+01-9.093750000000D+00 4.797700015047D-09 1.286077759375D+00
   -4.433095455170D-07 4.163852776401D-03 5.833804607391D-06 5.153659135818D+03
    1.656000000000D+05 7.450580596924D-09 6.910587574854D-01 5.587935447693D-08
    9.621166573235D-01 2.674375000000D+02-2.799124207102D+00-8.243200788627D-09
    1.217907857898D-10 1.000000000000D+00 2.034000000000D+03 0.000000000000D+00
    2.000000000000D+00 0.000000000000D+00 1.862645149231D-09 4.400000000000D+01
    0.000000000000D+00
10 19  1  1 16  0  0.0 1.426911912858D-04-6.025402399246D-12 0.000000000000D+00
    1.030000000000D+02-1.937500000000D+00 4.853773827307D-09-1.828618728396D+00
   -2.272427082062D-07 4.169640713371D-03 6.146728992462D-06 5.153655128479D+03
    2.304000000000D+05 2.421438694000D-08 6.905288636875D-01-4.284083843231D-08
    9.621278354805D-01 2.614375000000D+02-2.799057541925D+00-8.106765925220D-09
    3.303708973057D-10 1.000000000000D+00 2.034000000000D+03 0.000000000000D+00
    2.000000000000D+00 0.000000000000D+00 1.862645149231D-09 1.030000000000D+02
    2.251800000000D+05
10 19  1  1 17 59 44.0 1.426478847861D-04-6.025402399246D-12 0.000000000000D+00
    1.000000000000D+00-5.937500000000D-01 4.845559065103D-09-7.808179000168D-01
    1.862645149231D-09 4.169622086920D-03 5.997717380524D-06 5.153654661179D+03
    2.375840000000D+05 8.568167686462D-08 6.904707638959D-01 1.117587089539D-08
    9.621299333050D-01 2.627812500000D+02-2.798997487675D+00-8.156411546167D-09
    2.871548276939D-10 1.000000000000D+00 2.034000000000D+03 0.000000000000D+00
    2.000000000000D+00 0.000000000000D+00 1.862645149231D-09 1.000000000000D+00
    2.312400000000D+05
10 19  1  1 18  0  0.0 1.426474191248D-04-6.025402399246D-12 0.000000000000D+00
    1.040000000000D+02-5.937500000000D-01 4.845202017378D-09-7.784839853828D-01
    1.862645149231D-09 4.169628373347D-03 5.997717380524D-06 5.153654664993D+03
    2.376000000000D+05 8.568167686462D-08 6.904706556400D-01 1.117587089539D-08
    9.621299406196D-01 2.627812500000D+02-2.798997644207D+00-8.156411546167D-09
    2.871548276939D-10 1.000000000000D+00 2.034000000000D+03 0.000000000000D+00
    2.800000000000D+00 0.000000000000D+00 1.862645149231D-09 1.040000000000D+02
    2.304300000000D+05
10 19  1  1 19 59 44.0 1.426041126251D-04-6.025402399246D-12 0.000000000000D+00
    2.000000000000D+00 1.500000000000D+00 4.829129540695D-09 2.694043269602D-01
    1.117587089539D-07 4.170376691036D-03 5.822628736496D-06 5.153656106949D+03
    2.447840000000D+05 2.980232238770D-08 6.904118404815D-01 4.470348358154D-08
    9.621317575639D-01 2.678437500000D+02-2.799025217287D+00-8.203913104410D-09
    2.796544940065D-10 1.000000000000D+00 2.034000000000D+03 0.000000000000D+00
    2.000000000000D+00 0.000000000000D+00 1.862645149231D-09 2.000000000000D+00
    2.376300000000D+05
